OBJECT_NAME,OBJECT_ID,EPOCH,MEAN_MOTION,ECCENTRICITY,INCLINATION,RA_OF_ASC_NODE,ARG_OF_PERICENTER,MEAN_ANOMALY,EPHEMERIS_TYPE,CLASSIFICATION_TYPE,NORAD_CAT_ID,ELEMENT_SET_NO,REV_AT_EPOCH,BSTAR,MEAN_MOTION_DOT,MEAN_MOTION_DDOT
GSAT0233 (GALILEO 33),2025-302A,2026-02-13T12:00:00.000000,1.70474578,.00030114,54.3935,105.2952,207.0582,359.4109,0,U,67160,999,2,0,-.8E-7,0
GSAT0234 (GALILEO 34),2025-302C,2026-02-13T12:00:00.000000,1.70475065,.00030814,54.3967,105.2938,266.8423,119.7309,0,U,67162,999,12,0,-.8E-7,0